{"type": "FeatureCollection", "features": [ {"type": "Feature", "properties": {"norad_id": 46979, "name": "IRIDIUM 33 DEB", "group": "iridium-33-debris", "lat": 70.91295291190036, "lon": -139.52936615817916, "alt_km": 608.2321519850311, "timestamp": "2025-12-07T03:52:32.887694+00:00", "meta": {"OBJECT_NAME": "IRIDIUM 33 DEB", "OBJECT_ID": "1997-051ACM", "EPOCH": "2025-12-05T11:03:27.844416", "MEAN_MOTION": 14.88622682, "ECCENTRICITY": 0.00281198, "INCLINATION": 86.3357, "RA_OF_ASC_NODE": 51.9321, "ARG_OF_PERICENTER": 248.4888, "MEAN_ANOMALY": 111.334, "EPHEMERIS_TYPE": 0, "CLASSIFICATION_TYPE": "U", "NORAD_CAT_ID": 46979, "ELEMENT_SET_NO": 999, "REV_AT_EPOCH": 35320, "BSTAR": 0.0078016126, "MEAN_MOTION_DOT": 0.00073917, "MEAN_MOTION_DDOT": 0}, "tle": {"line1": "1 46979U 97051ACM 25339.46073894  .00073917  00000+0  78016-2 0  9990", "line2": "2 46979  86.3357  51.9321 0028119 248.4888 111.3340 14.88622682353206"}}, "geometry": {"type": "Point", "coordinates": [-139.52936615817916, 70.91295291190036]}}]}